KUIPER-00095            
1 65134U 25171C   25324.00003472 -.00023147  00000+0 -10270-2 0  9997
2 65134  51.8804 280.5794 0004436 123.4299 358.7902 15.20710064  2360
KUIPER-00096            
1 65135U 25171D   25324.00003472 -.00056950  00000+0 -49469-2 0  9998
2 65135  51.8908 283.9247 0010931 133.6109 136.9473 14.96687348  5559
KUIPER-00097            
1 65136U 25171E   25324.00003472 -.00032295  00000+0 -32820-2 0  9998
2 65136  51.8962 286.1269 0010929 138.5872  19.7475 14.90240507  4855
KUIPER-00098            
1 65137U 25171F   25324.00003472 -.00035037  00000+0 -45854-2 0  9997
2 65137  51.8995 288.1339 0008876 136.0864 206.3513 14.79949475  3622
KUIPER-00099            
1 65138U 25171G   25324.00003472 -.00899438  00000+0 -51241-1 0  9997
2 65138  51.8902 281.4637 0007123 144.4942 330.4244 15.14989774  5079
KUIPER-00100            
1 65139U 25171H   25324.00003472 -.00953066  00000+0 -46255-1 0  9995
2 65139  51.8845 280.5901 0002337 109.2226  56.9389 15.20725481  4637
KUIPER-00102            
1 65140U 25171J   25324.00003472 -.01136941  00000+0 -65346-1 0  9995
2 65140  51.8870 281.4508 0011275 130.4938 283.0151 15.14825060  5444
KUIPER-00103            
1 65141U 25171K   25323.62400253 -.00006113  00000+0 -77379-3 0  9998
2 65141  51.8997 297.2896 0006494 128.1985 231.9563 14.79891631 16418
